COSMOS 2433 (720)       
1 32275U 07052A   22258.30501225 -.00000090  00000+0  00000+0 0  9998
2 32275  66.0784   1.6905 0003506 213.5628 218.3872  2.13104132115885
COSMOS 2432 (719)       
1 32276U 07052B   22258.31186885 -.00000090  00000+0  00000+0 0  9991
2 32276  66.0928   1.7927 0007807 327.0272  58.2606  2.13103353115885
COSMOS 2434 (721)       
1 32393U 07065A   22258.35934122  .00000052  00000+0  00000+0 0  9991
2 32393  64.3727 238.3566 0000423 170.2801 193.2307  2.13103119114598
COSMOS 2436 (723)       
1 32395U 07065C   22258.40636387  .00000053  00000+0  00000+0 0  9992
2 32395  64.3823 238.4127 0015023 350.6689 184.7368  2.13102845114521
COSMOS 2456 (730)       
1 36111U 09070A   22257.66717652  .00000002  00000+0  00000+0 0  9996
2 36111  64.3727 117.9904 0002591 333.7799  23.0698  2.13099337 99230
COSMOS 2457 (733)       
1 36112U 09070B   22258.23680841 -.00000001  00000+0  00000+0 0  9990
2 36112  64.3562 117.8439 0005501 152.1225  49.7249  2.13101567 99259
COSMOS 2461 (735)       
1 36401U 10007B   22257.89510207 -.00000089  00000+0  00000+0 0  9998
2 36401  65.9628   0.5296 0018613   9.8560 324.9349  2.13103736 97591
COSMOS 2460 (732)       
1 36402U 10007C   22258.48384215 -.00000091  00000+0  00000+0 0  9996
2 36402  65.9488   0.4588 0001922 143.0778 232.6716  2.13106446 97613
COSMOS 2464 (736)       
1 37139U 10041C   22258.28260522  .00000051  00000+0  00000+0 0  9999
2 37139  63.9727 237.3899 0028288   5.6874 156.5193  2.13100791 93666
COSMOS 2476 (744)       
1 37867U 11064A   22258.51783815 -.00000002  00000+0  00000+0 0  9991
2 37867  64.6611 119.3522 0020685 233.8425 321.8566  2.13101865 84604
COSMOS 2477 (745)       
1 37868U 11064B   22258.47566125 -.00000002  00000+0  00000+0 0  9990
2 37868  64.6683 119.4194 0018002 234.2901 107.1279  2.13101748 84554
COSMOS 2475 (743)       
1 37869U 11064C   22258.30719574 -.00000002  00000+0  00000+0 0  9991
2 37869  64.6762 119.4345 0021902 253.5031 276.8001  2.13102126 84561
COSMOS 2485 (747)       
1 39155U 13019A   22258.43733575 -.00000002  00000+0  00000+0 0  9994
2 39155  64.8244 119.8029 0021169 229.3044 309.0414  2.13102019 73073
COSMOS 2492 (754)       
1 39620U 14012A   22258.10172130 -.00000090  00000+0  00000+0 0  9990
2 39620  65.8342   0.1403 0010984 321.3356 353.9254  2.13103298 66016
COSMOS 2500 (755)       
1 40001U 14032A   22258.41553693 -.00000091  00000+0  00000+0 0  9999
2 40001  65.7744 359.9841 0007787 190.6134 223.8056  2.13102355 64246
COSMOS 2501 (702K)      
1 40315U 14075A   22258.34774770  .00000051  00000+0  00000+0 0  9992
2 40315  63.6796 238.0217 0019457 212.4232 318.4313  2.13101381 60646
COSMOS 2514 (751)       
1 41330U 16008A   22257.63546704 -.00000090  00000+0  00000+0 0  9997
2 41330  65.5731 359.6808 0011526 206.4127 153.5566  2.13102725 51398
COSMOS 2516 (753)       
1 41554U 16032A   22258.45531391  .00000052  00000+0  00000+0 0  9996
2 41554  63.9052 238.3195 0015006 216.4948 317.0095  2.13106386 49012
COSMOS 2522 (752)       
1 42939U 17055A   22257.76847266  .00000046  00000+0  00000+0 0  9997
2 42939  64.1397 238.7649 0009971 245.2024 336.6770  2.13101996 38750
COSMOS 2527 (756)       
1 43508U 18053A   22258.60788418 -.00000002  00000+0  00000+0 0  9999
2 43508  64.9877 119.8158 0007327 222.2258 315.7016  2.13102561 33064
COSMOS 2529 (757)       
1 43687U 18086A   22257.77913863  .00000047  00000+0  00000+0 0  9992
2 43687  64.3543 239.1045 0011872 264.0296 281.5600  2.13102082 30067
COSMOS 2534 (758)       
1 44299U 19030A   22258.53474242  .00000054  00000+0  00000+0 0  9998
2 44299  64.4263 238.9718 0014164 282.2117 257.5562  2.13101867 25729
COSMOS 2544 (759)       
1 44850U 19088A   22258.55153617 -.00000002  00000+0  16595+1 0  9997
2 44850  64.9715 119.6681 0011143 255.5946 282.4955  2.13102291 21495
COSMOS 2545 (760)       
1 45358U 20018A   22258.53444997 -.00000092  00000+0  00000+0 0  9990
2 45358  64.9123   0.1842 0009075 236.1153 138.2361  2.13102734 19455
COSMOS 2547 (705K)      
1 46805U 20075A   22257.52731536  .00000045  00000+0  00000+0 0  9994
2 46805  64.6514 238.4572 0008678 246.4856 288.4176  2.13102992 14679
COSMOS 2557 (706K)      
1 52984U 22075A   22258.52979881 -.00000092  00000+0  10000-3 0  9997
2 52984  64.8157   2.3837 0011296 276.8997 184.9642  2.13101821  1498
